SAUDISAT 2              
1 28371U 04025F   26165.55614666  .00000226  00000+0  61487-4 0  9990
2 28371  98.5508 165.4700 0023690 306.7156  53.1865 14.56682577165369
COSMOS 2407             
1 28380U 04028A   26165.81201433  .00000052  00000+0  37582-4 0  9992
2 28380  82.9608  76.5932 0037815 258.8511 160.5956 13.76334585 99557
COSMOS 2414             
1 28521U 05002A   26165.79732174  .00000067  00000+0  43510-4 0  9994
2 28521  82.9501  45.4546 0039635 338.2218  21.7258 13.87926403 83487
INMARSAT 4-F1           
1 28628U 05009A   26165.79527542  .00000034  00000+0  00000+0 0  9996
2 28628   5.1647  42.7552 0002458  42.6985 282.0547  1.00271327 77644
SJ-7                    
1 28737U 05024A   26165.65732194  .00007189  00000+0  32150-3 0  9993
2 28737  97.7281 195.6927 0016608  46.2946 313.9662 15.21509352147649
CUBESAT XI-V            
1 28895U 05043F   26165.68474505  .00001249  00000+0  20428-3 0  9997
2 28895  98.2983 321.2541 0013480 208.9550 151.0910 14.72625493101389
HINODE (SOLAR-B)        
1 29479U 06041A   26165.80075531  .00000594  00000+0  11048-3 0  9995
2 29479  98.0549 181.9885 0016085 298.0113  61.9464 14.68620107 54523
SHIJIAN-6 02B (SJ-6 02B)
1 29506U 06046B   26165.88039198  .00001166  00000+0  94961-4 0  9990
2 29506  97.7160 194.9530 0015251  67.1981 293.0853 15.01371778 70390
DMSP 5D-3 F17 (USA 191) 
1 29522U 06050A   26165.83622315  .00000037  00000+0  41364-4 0  9992
2 29522  98.7378 172.4544 0011221  65.5492 294.6850 14.14992845 12092
LAPAN-TUBSAT            
1 29709U 07001A   26165.89751631  .00001069  00000+0  12897-3 0  9990
2 29709  98.1336 165.0693 0011689 186.6624 173.4436 14.85950768 50812
HAIYANG-1B              
1 31113U 07010A   26165.83743970  .00000069  00000+0  42111-4 0  9995
2 31113  98.3494 147.7737 0012866 203.5799 156.4796 14.31026337   303
COSMO-SKYMED 2          
1 32376U 07059A   26165.79817679  .00000346  00000+0  49987-4 0  9999
2 32376  97.8885 349.4308 0001384  86.6381 273.4991 14.82153280  1658
CARTOSAT-2A             
1 32783U 08021A   26165.88192499  .00000487  00000+0  72244-4 0  9995
2 32783  97.7640 214.6690 0013086 115.5611 244.6956 14.79234722978465
CUTE-1.7+APD II (CO-65) 
1 32785U 08021C   26165.86229626  .00004321  00000+0  27403-3 0  9995
2 32785  97.8270 147.2324 0010068  46.4137 313.7926 15.09433867984843
SEEDS II (CO-66)        
1 32791U 08021J   26165.72000341  .00016933  00000+0  53861-3 0  9997
2 32791  97.7509 163.4997 0001425  12.3890 347.7385 15.32677924986911
YUBILEINY (RS30)        
1 32953U 08025A   26165.84507743 -.00000006  00000+0 -11571-3 0  9990
2 32953  82.5042 356.8980 0018945 319.1714  40.7946 12.43179134819404
FENGYUN 3A              
1 32958U 08026A   26165.86233873  .00000055  00000+0  46421-4 0  9993
2 32958  98.6883 106.7389 0009499 129.7141 230.4874 14.19570688935072
HUANJING 1A (HJ-1A)     
1 33320U 08041A   26165.87378041  .00001180  00000+0  14747-3 0  9997
2 33320  97.6675 151.8013 0019798 141.8405 218.4216 14.83983014958062
HUANJING 1B (HJ-1B)     
1 33321U 08041B   26165.84180505  .00000399  00000+0  54557-4 0  9996
2 33321  97.6511 154.9490 0035821 188.7611 171.2982 14.83311564958060
SHIJIAN-6 03A (SJ-6 03A)
1 33408U 08053A   26165.87232318  .00004980  00000+0  25423-3 0  9997
2 33408  97.8412 199.1118 0011940  28.6622 331.5264 15.17147872962613
SHIJIAN-6 03B (SJ-6 03B)
1 33409U 08053B   26165.83824074  .00001164  00000+0  87899-4 0  9997
2 33409  97.8578 185.6908 0021094  52.6865 307.6278 15.04303962962395
CHUANGXIN 1-02 (CX-1-02)
1 33434U 08056B   26165.84883562 -.00000145  00000+0 -39114-4 0  9993
2 33434  98.6135 192.1387 0014886 143.0350 217.1861 14.30151840918286
