OBJECT_NAME,OBJECT_ID,EPOCH,MEAN_MOTION,ECCENTRICITY,INCLINATION,RA_OF_ASC_NODE,ARG_OF_PERICENTER,MEAN_ANOMALY,EPHEMERIS_TYPE,CLASSIFICATION_TYPE,NORAD_CAT_ID,ELEMENT_SET_NO,REV_AT_EPOCH,BSTAR,MEAN_MOTION_DOT,MEAN_MOTION_DDOT
SAUDISAT 2,2004-025F,2026-06-14T13:20:51.071424,14.56682577,.002369,98.5508,165.4700,306.7156,53.1865,0,U,28371,999,16536,.61487E-4,.226E-5,0
COSMOS 2407,2004-028A,2026-06-14T19:29:18.038112,13.76334585,.0037815,82.9608,76.5932,258.8511,160.5956,0,U,28380,999,9955,.37582E-4,.52E-6,0
COSMOS 2414,2005-002A,2026-06-14T19:08:08.598336,13.87926403,.0039635,82.9501,45.4546,338.2218,21.7258,0,U,28521,999,8348,.4351E-4,.67E-6,0
INMARSAT 4-F1,2005-009A,2026-06-14T19:05:11.796288,1.00271327,.0002458,5.1647,42.7552,42.6985,282.0547,0,U,28628,999,7764,0,.34E-6,0
SJ-7,2005-024A,2026-06-14T15:46:32.615616,15.21509352,.0016608,97.7281,195.6927,46.2946,313.9662,0,U,28737,999,14764,.3215E-3,.7189E-4,0
CUBESAT XI-V,2005-043F,2026-06-14T16:26:01.972320,14.72625493,.001348,98.2983,321.2541,208.9550,151.0910,0,U,28895,999,10138,.20428E-3,.1249E-4,0
HINODE (SOLAR-B),2006-041A,2026-06-14T19:13:05.258784,14.68620107,.0016085,98.0549,181.9885,298.0113,61.9464,0,U,29479,999,5452,.11048E-3,.594E-5,0
SHIJIAN-6 02B (SJ-6 02B),2006-046B,2026-06-14T21:07:45.867072,15.01371778,.0015251,97.7160,194.9530,67.1981,293.0853,0,U,29506,999,7039,.94961E-4,.1166E-4,0
DMSP 5D-3 F17 (USA 191),2006-050A,2026-06-14T20:04:09.680160,14.14992845,.0011221,98.7378,172.4544,65.5492,294.6850,0,U,29522,999,1209,.41364E-4,.37E-6,0
LAPAN-TUBSAT,2007-001A,2026-06-14T21:32:25.409184,14.85950768,.0011689,98.1336,165.0693,186.6624,173.4436,0,U,29709,999,5081,.12897E-3,.1069E-4,0
HAIYANG-1B,2007-010A,2026-06-14T20:05:54.790080,14.31026337,.0012866,98.3494,147.7737,203.5799,156.4796,0,U,31113,999,30,.42111E-4,.69E-6,0
COSMO-SKYMED 2,2007-059A,2026-06-14T19:09:22.474656,14.82153280,.0001384,97.8885,349.4308,86.6381,273.4991,0,U,32376,999,165,.49987E-4,.346E-5,0
CARTOSAT-2A,2008-021A,2026-06-14T21:09:58.319136,14.79234722,.0013086,97.7640,214.6690,115.5611,244.6956,0,U,32783,999,97846,.72244E-4,.487E-5,0
CUTE-1.7+APD II (CO-65),2008-021C,2026-06-14T20:41:42.396864,15.09433867,.0010068,97.8270,147.2324,46.4137,313.7926,0,U,32785,999,98484,.27403E-3,.4321E-4,0
SEEDS II (CO-66),2008-021J,2026-06-14T17:16:48.294624,15.32677924,.0001425,97.7509,163.4997,12.3890,347.7385,0,U,32791,999,98691,.53861E-3,.16933E-3,0
YUBILEINY (RS30),2008-025A,2026-06-14T20:16:54.689952,12.43179134,.0018945,82.5042,356.8980,319.1714,40.7946,0,U,32953,999,81940,-.11571E-3,-.6E-7,0
FENGYUN 3A,2008-026A,2026-06-14T20:41:46.066272,14.19570688,.0009499,98.6883,106.7389,129.7141,230.4874,0,U,32958,999,93507,.46421E-4,.55E-6,0
HUANJING 1A (HJ-1A),2008-041A,2026-06-14T20:58:14.627424,14.83983014,.0019798,97.6675,151.8013,141.8405,218.4216,0,U,33320,999,95806,.14747E-3,.118E-4,0
HUANJING 1B (HJ-1B),2008-041B,2026-06-14T20:12:11.956320,14.83311564,.0035821,97.6511,154.9490,188.7611,171.2982,0,U,33321,999,95806,.54557E-4,.399E-5,0
SHIJIAN-6 03A (SJ-6 03A),2008-053A,2026-06-14T20:56:08.722752,15.17147872,.001194,97.8412,199.1118,28.6622,331.5264,0,U,33408,999,96261,.25423E-3,.498E-4,0
SHIJIAN-6 03B (SJ-6 03B),2008-053B,2026-06-14T20:07:03.999936,15.04303962,.0021094,97.8578,185.6908,52.6865,307.6278,0,U,33409,999,96239,.87899E-4,.1164E-4,0
CHUANGXIN 1-02 (CX-1-02),2008-056B,2026-06-14T20:22:19.397568,14.30151840,.0014886,98.6135,192.1387,143.0350,217.1861,0,U,33434,999,91828,-.39114E-4,-.145E-5,0
